{"type": "FeatureCollection", "features": [ {"type": "Feature", "properties": {"norad_id": 66755, "name": "TRANSPORTER-15 CT", "group": "last-30-days", "lat": -0.7891613496188205, "lon": -114.3090526336609, "alt_km": 516.0891509051335, "timestamp": "2025-12-20T03:42:46.120287+00:00", "meta": {"OBJECT_NAME": "TRANSPORTER-15 CT", "OBJECT_ID": "2025-276CT", "EPOCH": "2025-12-19T20:00:01.999008", "MEAN_MOTION": 15.17628766, "ECCENTRICITY": 7.19e-05, "INCLINATION": 97.4423, "RA_OF_ASC_NODE": 65.4783, "ARG_OF_PERICENTER": 245.9768, "MEAN_ANOMALY": 340.19, "EPHEMERIS_TYPE": 0, "CLASSIFICATION_TYPE": "U", "NORAD_CAT_ID": 66755, "ELEMENT_SET_NO": 999, "REV_AT_EPOCH": 420, "BSTAR": -0.0026757, "MEAN_MOTION_DOT": -0.00053457, "MEAN_MOTION_DDOT": 0}, "tle": {"line1": "1 66755U 25276CT  25353.83335647 -.00053457  00000+0 -26757-2 0  9992", "line2": "2 66755  97.4423  65.4783 0000719 245.9768 340.1900 15.17628766  4203"}}, "geometry": {"type": "Point", "coordinates": [-114.3090526336609, -0.7891613496188205]}}, {"type": "Feature", "properties": {"norad_id": 66756, "name": "TRANSPORTER-15 CU", "group": "last-30-days", "lat": -26.136618873490576, "lon": -117.86886043322284, "alt_km": 517.2824125394254, "timestamp": "2025-12-20T03:42:46.120297+00:00", "meta": {"OBJECT_NAME": "TRANSPORTER-15 CU", "OBJECT_ID": "2025-276CU", "EPOCH": "2025-12-19T15:43:55.275168", "MEAN_MOTION": 15.17907006, "ECCENTRICITY": 0.0001241, "INCLINATION": 97.4425, "RA_OF_ASC_NODE": 65.318, "ARG_OF_PERICENTER": 166.1359, "MEAN_ANOMALY": 193.9909, "EPHEMERIS_TYPE": 0, "CLASSIFICATION_TYPE": "U", "NORAD_CAT_ID": 66756, "ELEMENT_SET_NO": 999, "REV_AT_EPOCH": 317, "BSTAR": 0.00017921, "MEAN_MOTION_DOT": 3.567e-05, "MEAN_MOTION_DDOT": 0}, "tle": {"line1": "1 66756U 25276CU  25353.65550087  .00003567  00000+0  17921-3 0  9999", "line2": "2 66756  97.4425  65.3180 0001241 166.1359 193.9909 15.17907006  3172"}}, "geometry": {"type": "Point", "coordinates": [-117.86886043322284, -26.136618873490576]}}, {"type": "Feature", "properties": {"norad_id": 66757, "name": "TRANSPORTER-15 CV", "group": "last-30-days", "lat": -32.51673707217201, "lon": -118.96651364649205, "alt_km": 517.3830187191152, "timestamp": "2025-12-20T03:42:46.120308+00:00", "meta": {"OBJECT_NAME": "TRANSPORTER-15 CV", "OBJECT_ID": "2025-276CV", "EPOCH": "2025-12-19T15:42:16.442208", "MEAN_MOTION": 15.18021664, "ECCENTRICITY": 0.0001414, "INCLINATION": 97.4435, "RA_OF_ASC_NODE": 65.3222, "ARG_OF_PERICENTER": 163.2709, "MEAN_ANOMALY": 196.8572, "EPHEMERIS_TYPE": 0, "CLASSIFICATION_TYPE": "U", "NORAD_CAT_ID": 66757, "ELEMENT_SET_NO": 999, "REV_AT_EPOCH": 317, "BSTAR": 0.00021228, "MEAN_MOTION_DOT": 4.252e-05, "MEAN_MOTION_DDOT": 0}, "tle": {"line1": "1 66757U 25276CV  25353.65435697  .00004252  00000+0  21228-3 0  9996", "line2": "2 66757  97.4435  65.3222 0001414 163.2709 196.8572 15.18021664  3176"}}, "geometry": {"type": "Point", "coordinates": [-118.96651364649205, -32.51673707217201]}}, {"type": "Feature", "properties": {"norad_id": 66758, "name": "TRANSPORTER-15 CW", "group": "last-30-days", "lat": -33.9208579882851, "lon": -119.23578516661709, "alt_km": 517.8489946660566, "timestamp": "2025-12-20T03:42:46.120317+00:00", "meta": {"OBJECT_NAME": "TRANSPORTER-15 CW", "OBJECT_ID": "2025-276CW", "EPOCH": "2025-12-19T15:41:54.240864", "MEAN_MOTION": 15.18031041, "ECCENTRICITY": 0.0001099, "INCLINATION": 97.4405, "RA_OF_ASC_NODE": 65.3141, "ARG_OF_PERICENTER": 141.1431, "MEAN_ANOMALY": 218.9882, "EPHEMERIS_TYPE": 0, "CLASSIFICATION_TYPE": "U", "NORAD_CAT_ID": 66758, "ELEMENT_SET_NO": 999, "REV_AT_EPOCH": 317, "BSTAR": 0.00019855, "MEAN_MOTION_DOT": 3.973e-05, "MEAN_MOTION_DDOT": 0}, "tle": {"line1": "1 66758U 25276CW  25353.65410001  .00003973  00000+0  19855-3 0  9991", "line2": "2 66758  97.4405  65.3141 0001099 141.1431 218.9882 15.18031041  3170"}}, "geometry": {"type": "Point", "coordinates": [-119.23578516661709, -33.9208579882851]}}, {"type": "Feature", "properties": {"norad_id": 66759, "name": "TRANSPORTER-15 CX", "group": "last-30-days", "lat": -41.466472350276916, "lon": -120.8251058687408, "alt_km": 517.8246970779637, "timestamp": "2025-12-20T03:42:46.120327+00:00", "meta": {"OBJECT_NAME": "TRANSPORTER-15 CX", "OBJECT_ID": "2025-276CX", "EPOCH": "2025-12-19T14:05:02.213952", "MEAN_MOTION": 15.18161392, "ECCENTRICITY": 0.0001493, "INCLINATION": 97.4394, "RA_OF_ASC_NODE": 65.2472, "ARG_OF_PERICENTER": 144.8645, "MEAN_ANOMALY": 215.2688, "EPHEMERIS_TYPE": 0, "CLASSIFICATION_TYPE": "U", "NORAD_CAT_ID": 66759, "ELEMENT_SET_NO": 999, "REV_AT_EPOCH": 316, "BSTAR": 0.0002502, "MEAN_MOTION_DOT": 5.044e-05, "MEAN_MOTION_DDOT": 0}, "tle": {"line1": "1 66759U 25276CX  25353.58683118  .00005044  00000+0  25020-3 0  9997", "line2": "2 66759  97.4394  65.2472 0001493 144.8645 215.2688 15.18161392  3165"}}, "geometry": {"type": "Point", "coordinates": [-120.8251058687408, -41.466472350276916]}}, {"type": "Feature", "properties": {"norad_id": 66760, "name": "TRANSPORTER-15 CY", "group": "last-30-days", "lat": -43.66787024451934, "lon": -121.35477884172455, "alt_km": 518.526976302086, "timestamp": "2025-12-20T03:42:46.120337+00:00", "meta": {"OBJECT_NAME": "TRANSPORTER-15 CY", "OBJECT_ID": "2025-276CY", "EPOCH": "2025-12-19T14:04:26.423616", "MEAN_MOTION": 15.18148668, "ECCENTRICITY": 0.0001482, "INCLINATION": 97.441, "RA_OF_ASC_NODE": 65.253, "ARG_OF_PERICENTER": 114.6882, "MEAN_ANOMALY": 245.4506, "EPHEMERIS_TYPE": 0, "CLASSIFICATION_TYPE": "U", "NORAD_CAT_ID": 66760, "ELEMENT_SET_NO": 999, "REV_AT_EPOCH": 316, "BSTAR": 0.00019066, "MEAN_MOTION_DOT": 3.826e-05, "MEAN_MOTION_DDOT": 0}, "tle": {"line1": "1 66760U 25276CY  25353.58641694  .00003826  00000+0  19066-3 0  9991", "line2": "2 66760  97.4410  65.2530 0001482 114.6882 245.4506 15.18148668  3162"}}, "geometry": {"type": "Point", "coordinates": [-121.35477884172455, -43.66787024451934]}}, {"type": "Feature", "properties": {"norad_id": 66761, "name": "TRANSPORTER-15 CZ", "group": "last-30-days", "lat": -54.546916967116346, "lon": -124.76015633405727, "alt_km": 518.0446799706633, "timestamp": "2025-12-20T03:42:46.120350+00:00", "meta": {"OBJECT_NAME": "TRANSPORTER-15 CZ", "OBJECT_ID": "2025-276CZ", "EPOCH": "2025-12-19T15:36:32.669568", "MEAN_MOTION": 15.18406785, "ECCENTRICITY": 0.0001457, "INCLINATION": 97.441, "RA_OF_ASC_NODE": 65.3201, "ARG_OF_PERICENTER": 126.879, "MEAN_ANOMALY": 233.2578, "EPHEMERIS_TYPE": 0, "CLASSIFICATION_TYPE": "U", "NORAD_CAT_ID": 66761, "ELEMENT_SET_NO": 999, "REV_AT_EPOCH": 317, "BSTAR": 0.00032412, "MEAN_MOTION_DOT": 6.602e-05, "MEAN_MOTION_DDOT": 0}, "tle": {"line1": "1 66761U 25276CZ  25353.65037812  .00006602  00000+0  32412-3 0  9996", "line2": "2 66761  97.4410  65.3201 0001457 126.8790 233.2578 15.18406785  3176"}}, "geometry": {"type": "Point", "coordinates": [-124.76015633405727, -54.546916967116346]}}, {"type": "Feature", "properties": {"norad_id": 66762, "name": "TRANSPORTER-15 DA", "group": "last-30-days", "lat": 19.519500905716395, "lon": -111.55679555736121, "alt_km": 514.7383051011475, "timestamp": "2025-12-20T03:42:46.120362+00:00", "meta": {"OBJECT_NAME": "TRANSPORTER-15 DA", "OBJECT_ID": "2025-276DA", "EPOCH": "2025-12-19T15:55:45.820128", "MEAN_MOTION": 15.17272441, "ECCENTRICITY": 0.0001021, "INCLINATION": 97.4418, "RA_OF_ASC_NODE": 65.3051, "ARG_OF_PERICENTER": 289.3791, "MEAN_ANOMALY": 70.7333, "EPHEMERIS_TYPE": 0, "CLASSIFICATION_TYPE": "U", "NORAD_CAT_ID": 66762, "ELEMENT_SET_NO": 999, "REV_AT_EPOCH": 317, "BSTAR": 0.00013794, "MEAN_MOTION_DOT": 2.68e-05, "MEAN_MOTION_DDOT": 0}, "tle": {"line1": "1 66762U 25276DA  25353.66372477  .00002680  00000+0  13794-3 0  9991", "line2": "2 66762  97.4418  65.3051 0001021 289.3791  70.7333 15.17272441  3173"}}, "geometry": {"type": "Point", "coordinates": [-111.55679555736121, 19.519500905716395]}}, {"type": "Feature", "properties": {"norad_id": 66763, "name": "TRANSPORTER-15 DB", "group": "last-30-days", "lat": 9.827505381810495, "lon": -112.90728668292377, "alt_km": 515.4253435124192, "timestamp": "2025-12-20T03:42:46.120374+00:00", "meta": {"OBJECT_NAME": "TRANSPORTER-15 DB", "OBJECT_ID": "2025-276DB", "EPOCH": "2025-12-19T15:53:14.511264", "MEAN_MOTION": 15.17399525, "ECCENTRICITY": 0.0001394, "INCLINATION": 97.4424, "RA_OF_ASC_NODE": 65.3111, "ARG_OF_PERICENTER": 262.5226, "MEAN_ANOMALY": 97.5849, "EPHEMERIS_TYPE": 0, "CLASSIFICATION_TYPE": "U", "NORAD_CAT_ID": 66763, "ELEMENT_SET_NO": 999, "REV_AT_EPOCH": 317, "BSTAR": 0.00013384, "MEAN_MOTION_DOT": 2.608e-05, "MEAN_MOTION_DDOT": 0}, "tle": {"line1": "1 66763U 25276DB  25353.66197351  .00002608  00000+0  13384-3 0  9993", "line2": "2 66763  97.4424  65.3111 0001394 262.5226  97.5849 15.17399525  3179"}}, "geometry": {"type": "Point", "coordinates": [-112.90728668292377, 9.827505381810495]}}, {"type": "Feature", "properties": {"norad_id": 66764, "name": "TRANSPORTER-15 DC", "group": "last-30-days", "lat": -11.36572543246007, "lon": -115.70684619854649, "alt_km": 516.1616433563631, "timestamp": "2025-12-20T03:42:46.120384+00:00", "meta": {"OBJECT_NAME": "TRANSPORTER-15 DC", "OBJECT_ID": "2025-276DC", "EPOCH": "2025-12-19T15:47:44.007072", "MEAN_MOTION": 15.17665105, "ECCENTRICITY": 0.0001782, "INCLINATION": 97.4416, "RA_OF_ASC_NODE": 65.3107, "ARG_OF_PERICENTER": 211.1809, "MEAN_ANOMALY": 148.9319, "EPHEMERIS_TYPE": 0, "CLASSIFICATION_TYPE": "U", "NORAD_CAT_ID": 66764, "ELEMENT_SET_NO": 999, "REV_AT_EPOCH": 317, "BSTAR": 0.00011455, "MEAN_MOTION_DOT": 2.24e-05, "MEAN_MOTION_DDOT": 0}, "tle": {"line1": "1 66764U 25276DC  25353.65814823  .00002240  00000+0  11455-3 0  9992", "line2": "2 66764  97.4416  65.3107 0001782 211.1809 148.9319 15.17665105  3177"}}, "geometry": {"type": "Point", "coordinates": [-115.70684619854649, -11.36572543246007]}}]}